STARLINK-2022           
1 47643U 21012Z   24025.01958306  .00005348  00000+0  37760-3 0  9990
2 47643  53.0540 289.2473 0001458 110.6822 249.4324 15.06405926163507
